{"fetched_at":"2026-03-30T13:17:50Z","count":15418,"tles":[{"name":"STARLINK-6074","line1":"1 56553U 23065BC  26087.77842104  .00003097  00000+0  12200-3 0  9992","line2":"2 56553  43.0018 115.5905 0000734 279.3120  80.7648 15.27581492159390","category":"Starlink"}]}